OBJECT_NAME,OBJECT_ID,EPOCH,MEAN_MOTION,ECCENTRICITY,INCLINATION,RA_OF_ASC_NODE,ARG_OF_PERICENTER,MEAN_ANOMALY,EPHEMERIS_TYPE,CLASSIFICATION_TYPE,NORAD_CAT_ID,ELEMENT_SET_NO,REV_AT_EPOCH,BSTAR,MEAN_MOTION_DOT,MEAN_MOTION_DDOT
IRIDIUM 138,2017-083B,2026-06-15T03:41:15.131904,14.34217165,.0002225,86.3973,322.5609,87.7131,272.4320,0,U,43071,999,44384,-.15903E-4,-.25E-6,0
IRIDIUM 116,2017-083C,2026-06-15T04:36:03.116736,14.34217855,.0001934,86.3961,322.8358,97.6715,262.4700,0,U,43072,999,44388,.5493E-5,.35E-6,0
IRIDIUM 130,2017-083D,2026-06-15T03:50:23.078976,14.34217630,.0001825,86.3966,323.1243,91.8522,268.2882,0,U,43073,999,44382,.20177E-5,.25E-6,0
IRIDIUM 151,2017-083E,2026-06-15T03:13:51.166272,14.34217783,.0002153,86.3963,322.9173,92.3025,267.8418,0,U,43074,999,44384,.5729E-5,.36E-6,0
IRIDIUM 134,2017-083F,2026-06-15T04:08:39.115680,14.34217919,.000209,86.3965,322.9095,90.8553,269.2882,0,U,43075,999,44381,.41971E-5,.32E-6,0
IRIDIUM 137,2017-083G,2026-06-15T04:26:55.142880,14.34217897,.0002203,86.3967,322.9969,103.8182,256.3259,0,U,43076,999,44388,.75284E-5,.41E-6,0
IRIDIUM 141,2017-083H,2026-06-15T04:17:47.151744,14.34217829,.0002219,86.3961,322.8302,90.9005,269.2445,0,U,43077,999,44388,.24175E-5,.27E-6,0
IRIDIUM 153,2017-083J,2026-06-15T01:28:27.444000,14.34217652,.0002276,86.3958,291.3597,90.0470,270.0986,0,U,43078,999,44497,-.81736E-6,.17E-6,0
IRIDIUM 131,2017-083K,2026-06-15T03:59:31.026048,14.34218818,.000223,86.3967,323.0214,92.2697,267.8754,0,U,43079,999,44381,.38153E-4,.127E-5,0
IRIDIUM 144,2018-030A,2026-06-15T01:37:35.297760,14.34218314,.0002105,86.3957,291.2862,96.4076,263.7360,0,U,43249,999,42983,.20995E-4,.79E-6,0
IRIDIUM 149,2018-030B,2026-06-15T01:46:43.440096,14.34217337,.0002133,86.3953,291.2507,93.8445,266.2994,0,U,43250,999,42985,-.13813E-4,-.19E-6,0
IRIDIUM 157,2018-030C,2026-06-15T02:14:07.416096,14.34217646,.0002198,86.3957,291.2957,94.1630,265.9817,0,U,43251,999,42983,-.2912E-5,.12E-6,0
IRIDIUM 140,2018-030D,2026-06-15T01:01:03.421344,14.34217588,.0002141,86.3957,291.3294,93.0631,267.0810,0,U,43252,999,42988,-.14862E-5,.16E-6,0
IRIDIUM 145,2018-030E,2026-06-15T02:23:15.366624,14.34217653,.0001965,86.3956,291.2779,100.3289,259.8129,0,U,43253,999,42982,.13514E-4,.58E-6,0
IRIDIUM 146,2018-030F,2026-06-15T01:55:51.394944,14.34217788,.0002105,86.3957,291.2981,96.4606,263.6829,0,U,43254,999,42983,.46523E-5,.33E-6,0
IRIDIUM 148,2018-030G,2026-06-15T01:10:11.436672,14.34217827,.0002249,86.3957,291.3544,96.6341,263.5111,0,U,43255,999,42986,.11836E-4,.53E-6,0
IRIDIUM 142,2018-030H,2026-06-15T02:04:59.367936,14.34217793,.0002066,86.3954,291.2276,98.2557,261.8873,0,U,43256,999,42983,.25413E-4,.91E-6,0
IRIDIUM 150,2018-030J,2026-06-15T01:19:19.426944,14.34217555,.0002137,86.3957,291.3571,93.3675,266.7765,0,U,43257,999,42985,-.31555E-5,.11E-6,0
IRIDIUM 143,2018-030K,2026-06-15T02:32:23.385408,14.34217532,.000207,86.3961,291.4284,95.9767,264.1665,0,U,43258,999,42979,.3035E-4,.105E-5,0
IRIDIUM 161,2018-047C,2026-06-15T03:48:05.817888,14.43281916,.0002536,86.4482,89.3194,85.3256,274.8234,0,U,43478,999,42484,.75647E-4,.275E-5,0
IRIDIUM 152,2018-047D,2026-06-15T03:33:34.262208,14.34218089,.0002337,86.3959,89.1847,83.3779,276.7682,0,U,43479,999,42219,.22644E-4,.83E-6,0
IRIDIUM 147,2018-047E,2026-06-15T03:42:42.281856,14.34217570,.0002138,86.3960,89.1872,85.6123,274.5317,0,U,43480,999,42219,.27163E-5,.27E-6,0
IRIDIUM 110,2018-047F,2026-06-15T03:51:50.323104,14.34217015,.0002583,86.3962,89.2762,83.4143,276.7347,0,U,43481,999,42218,.24486E-4,.88E-6,0
IRIDIUM 162,2018-047G,2026-06-15T03:39:02.234016,14.43280583,.0002278,86.4481,89.2131,82.5233,277.6226,0,U,43482,999,42483,.76368E-4,.277E-5,0
IRIDIUM 160,2018-061A,2026-06-15T04:14:18.475872,14.34218116,.0002277,86.3964,57.6381,85.9220,274.2236,0,U,43569,999,41308,.25845E-4,.92E-6,0
IRIDIUM 166,2018-061B,2026-06-15T03:10:22.472256,14.34217861,.0002112,86.3964,57.6073,86.2440,273.8997,0,U,43570,999,41310,.13035E-4,.56E-6,0
IRIDIUM 158,2018-061C,2026-06-15T04:05:10.488192,14.34217741,.0002194,86.3962,57.6012,82.0156,278.1289,0,U,43571,999,41307,.131E-4,.56E-6,0
IRIDIUM 165,2018-061D,2026-06-15T03:01:14.385216,14.34217446,.0002069,86.3965,57.6662,86.3689,273.7743,0,U,43572,999,41309,.33198E-4,.113E-5,0
IRIDIUM 155,2018-061E,2026-06-15T03:46:54.481728,14.34217642,.0002113,86.3959,57.5220,82.2109,277.9327,0,U,43573,999,41306,.56578E-5,.36E-6,0
IRIDIUM 154,2018-061F,2026-06-15T03:19:30.154080,14.34219726,.0002103,86.3965,57.6636,87.4464,272.6972,0,U,43574,999,41311,.69852E-4,.215E-5,0
IRIDIUM 163,2018-061G,2026-06-15T02:52:06.069216,14.34216529,.0002264,86.3961,57.5869,83.5624,276.5829,0,U,43575,999,41308,.2175E-4,.81E-6,0
