IRIDIUM 138             
1 43071U 17083B   26166.15364736 -.00000025  00000+0 -15903-4 0  9990
2 43071  86.3973 322.5609 0002225  87.7131 272.4320 14.34217165443845
IRIDIUM 116             
1 43072U 17083C   26166.19170274  .00000035  00000+0  54930-5 0  9990
2 43072  86.3961 322.8358 0001934  97.6715 262.4700 14.34217855443882
IRIDIUM 130             
1 43073U 17083D   26166.15998934  .00000025  00000+0  20177-5 0  9993
2 43073  86.3966 323.1243 0001825  91.8522 268.2882 14.34217630443826
IRIDIUM 151             
1 43074U 17083E   26166.13461998  .00000036  00000+0  57290-5 0  9995
2 43074  86.3963 322.9173 0002153  92.3025 267.8418 14.34217783443843
IRIDIUM 134             
1 43075U 17083F   26166.17267495  .00000032  00000+0  41971-5 0  9991
2 43075  86.3965 322.9095 0002090  90.8553 269.2882 14.34217919443817
IRIDIUM 137             
1 43076U 17083G   26166.18536045  .00000041  00000+0  75284-5 0  9997
2 43076  86.3967 322.9969 0002203 103.8182 256.3259 14.34217897443886
IRIDIUM 141             
1 43077U 17083H   26166.17901796  .00000027  00000+0  24175-5 0  9993
2 43077  86.3961 322.8302 0002219  90.9005 269.2445 14.34217829443883
IRIDIUM 153             
1 43078U 17083J   26166.06142875  .00000017  00000+0 -81736-6 0  9994
2 43078  86.3958 291.3597 0002276  90.0470 270.0986 14.34217652444971
IRIDIUM 131             
1 43079U 17083K   26166.16633132  .00000127  00000+0  38153-4 0  9991
2 43079  86.3967 323.0214 0002230  92.2697 267.8754 14.34218818443810
IRIDIUM 144             
1 43249U 18030A   26166.06776965  .00000079  00000+0  20995-4 0  9995
2 43249  86.3957 291.2862 0002105  96.4076 263.7360 14.34218314429836
IRIDIUM 149             
1 43250U 18030B   26166.07411389 -.00000019  00000+0 -13813-4 0  9991
2 43250  86.3953 291.2507 0002133  93.8445 266.2994 14.34217337429859
IRIDIUM 157             
1 43251U 18030C   26166.09314139  .00000012  00000+0 -29120-5 0  9990
2 43251  86.3957 291.2957 0002198  94.1630 265.9817 14.34217646429835
IRIDIUM 140             
1 43252U 18030D   26166.04240071  .00000016  00000+0 -14862-5 0  9990
2 43252  86.3957 291.3294 0002141  93.0631 267.0810 14.34217588429884
IRIDIUM 145             
1 43253U 18030E   26166.09948341  .00000058  00000+0  13514-4 0  9998
2 43253  86.3956 291.2779 0001965 100.3289 259.8129 14.34217653429824
IRIDIUM 146             
1 43254U 18030F   26166.08045596  .00000033  00000+0  46523-5 0  9998
2 43254  86.3957 291.2981 0002105  96.4606 263.6829 14.34217788429836
IRIDIUM 148             
1 43255U 18030G   26166.04874348  .00000053  00000+0  11836-4 0  9990
2 43255  86.3957 291.3544 0002249  96.6341 263.5111 14.34217827429860
IRIDIUM 142             
1 43256U 18030H   26166.08679824  .00000091  00000+0  25413-4 0  9995
2 43256  86.3954 291.2276 0002066  98.2557 261.8873 14.34217793429838
IRIDIUM 150             
1 43257U 18030J   26166.05508596  .00000011  00000+0 -31555-5 0  9998
2 43257  86.3957 291.3571 0002137  93.3675 266.7765 14.34217555429859
IRIDIUM 143             
1 43258U 18030K   26166.10582622  .00000105  00000+0  30350-4 0  9991
2 43258  86.3961 291.4284 0002070  95.9767 264.1665 14.34217532429792
IRIDIUM 161             
1 43478U 18047C   26166.15840067  .00000275  00000+0  75647-4 0  9994
2 43478  86.4482  89.3194 0002536  85.3256 274.8234 14.43281916424840
IRIDIUM 152             
1 43479U 18047D   26166.14831322  .00000083  00000+0  22644-4 0  9994
2 43479  86.3959  89.1847 0002337  83.3779 276.7682 14.34218089422194
IRIDIUM 147             
1 43480U 18047E   26166.15465604  .00000027  00000+0  27163-5 0  9993
2 43480  86.3960  89.1872 0002138  85.6123 274.5317 14.34217570422198
IRIDIUM 110             
1 43481U 18047F   26166.16099911  .00000088  00000+0  24486-4 0  9990
2 43481  86.3962  89.2762 0002583  83.4143 276.7347 14.34217015422182
IRIDIUM 162             
1 43482U 18047G   26166.15210919  .00000277  00000+0  76368-4 0  9999
2 43482  86.4481  89.2131 0002278  82.5233 277.6226 14.43280583424831
IRIDIUM 160             
1 43569U 18061A   26166.17660273  .00000092  00000+0  25845-4 0  9994
2 43569  86.3964  57.6381 0002277  85.9220 274.2236 14.34218116413082
IRIDIUM 166             
1 43570U 18061B   26166.13220454  .00000056  00000+0  13035-4 0  9993
2 43570  86.3964  57.6073 0002112  86.2440 273.8997 14.34217861413106
IRIDIUM 158             
1 43571U 18061C   26166.17026028  .00000056  00000+0  13100-4 0  9992
2 43571  86.3962  57.6012 0002194  82.0156 278.1289 14.34217741413071
IRIDIUM 165             
1 43572U 18061D   26166.12586094  .00000113  00000+0  33198-4 0  9995
2 43572  86.3965  57.6662 0002069  86.3689 273.7743 14.34217446413095
IRIDIUM 155             
1 43573U 18061E   26166.15757502  .00000036  00000+0  56578-5 0  9995
2 43573  86.3959  57.5220 0002113  82.2109 277.9327 14.34217642413069
IRIDIUM 154             
1 43574U 18061F   26166.13854345  .00000215  00000+0  69852-4 0  9994
2 43574  86.3965  57.6636 0002103  87.4464 272.6972 14.34219726413118
IRIDIUM 163             
1 43575U 18061G   26166.11951469  .00000081  00000+0  21750-4 0  9994
2 43575  86.3961  57.5869 0002264  83.5624 276.5829 14.34216529413083
